{
  "norad_id": 64934,
  "name": "STARLINK-34775",
  "history": [
    {
      "epoch": "2026-03-28T21:19:32.897280Z",
      "apogee_km": 551.2365479940663,
      "perigee_km": 547.7393443687342,
      "latitude_deg": -5.400019605177776e-05,
      "longitude_deg": 166.80157956590563,
      "height_km": 552.3797767046422,
      "semi_major_axis_km": 6927.6249461813995,
      "eccentricity": 0.00025241,
      "inclination_deg": 97.6044,
      "raan_deg": 312.9912,
      "arg_perigee_deg": 84.4504,
      "mean_anomaly_deg": 275.701,
      "mean_motion_rev_day": 15.05657566
    },
    {
      "epoch": "2026-03-29T03:42:20.902176Z",
      "apogee_km": 551.3571609922992,
      "perigee_km": 547.6134738919527,
      "latitude_deg": 3.212921602829872e-05,
      "longitude_deg": 71.10183041952618,
      "height_km": 552.3559327098064,
      "semi_major_axis_km": 6927.622317442126,
      "eccentricity": 0.0002702,
      "inclination_deg": 97.6045,
      "raan_deg": 313.2535,
      "arg_perigee_deg": 84.175,
      "mean_anomaly_deg": 275.9785,
      "mean_motion_rev_day": 15.05658423
    },
    {
      "epoch": "2026-03-30T02:02:08.780640Z",
      "apogee_km": 551.2169876494745,
      "perigee_km": 547.7684135845066,
      "latitude_deg": 3.549405791680176e-05,
      "longitude_deg": 96.1520777731785,
      "height_km": 552.3935932863822,
      "semi_major_axis_km": 6927.62970061699,
      "eccentricity": 0.0002489,
      "inclination_deg": 97.6046,
      "raan_deg": 314.1703,
      "arg_perigee_deg": 84.673,
      "mean_anomaly_deg": 275.4781,
      "mean_motion_rev_day": 15.05656016
    },
    {
      "epoch": "2026-03-30T05:13:32.842272Z",
      "apogee_km": 551.296749051492,
      "perigee_km": 547.7212523975986,
      "latitude_deg": 3.43456493109352e-05,
      "longitude_deg": 48.30211193131628,
      "height_km": 552.3781315516101,
      "semi_major_axis_km": 6927.646000724545,
      "eccentricity": 0.00025806,
      "inclination_deg": 97.6047,
      "raan_deg": 314.3016,
      "arg_perigee_deg": 83.8454,
      "mean_anomaly_deg": 276.3067,
      "mean_motion_rev_day": 15.05650702
    }
  ]
}